{"type": "FeatureCollection", "features": [ {"type": "Feature", "properties": {"norad_id": 35462, "name": "COSMOS 2251 DEB", "group": "cosmos-2251-debris", "lat": -18.577910381133968, "lon": -88.12236064723957, "alt_km": 743.5328385695993, "timestamp": "2025-12-07T22:37:43.478279+00:00", "meta": {"OBJECT_NAME": "COSMOS 2251 DEB", "OBJECT_ID": "1993-036ALG", "EPOCH": "2025-12-07T04:14:20.255712", "MEAN_MOTION": 14.29218586, "ECCENTRICITY": 0.00867233, "INCLINATION": 74.0387, "RA_OF_ASC_NODE": 278.7883, "ARG_OF_PERICENTER": 315.1599, "MEAN_ANOMALY": 44.2564, "EPHEMERIS_TYPE": 0, "CLASSIFICATION_TYPE": "U", "NORAD_CAT_ID": 35462, "ELEMENT_SET_NO": 999, "REV_AT_EPOCH": 66301, "BSTAR": 0.0026518196, "MEAN_MOTION_DOT": 6.996e-05, "MEAN_MOTION_DDOT": 0}, "tle": {"line1": "1 35462U 93036ALG 25341.17662333  .00006996  00000+0  26518-2 0  9990", "line2": "2 35462  74.0387 278.7883 0086723 315.1599  44.2564 14.29218586663010"}}, "geometry": {"type": "Point", "coordinates": [-88.12236064723957, -18.577910381133968]}}, {"type": "Feature", "properties": {"norad_id": 35465, "name": "COSMOS 2251 DEB", "group": "cosmos-2251-debris", "lat": 37.92790164638998, "lon": 13.0572562239925, "alt_km": 771.8073511359744, "timestamp": "2025-12-07T22:37:43.478289+00:00", "meta": {"OBJECT_NAME": "COSMOS 2251 DEB", "OBJECT_ID": "1993-036ALK", "EPOCH": "2025-11-29T22:48:34.232544", "MEAN_MOTION": 14.44263019, "ECCENTRICITY": 0.00634289, "INCLINATION": 73.9997, "RA_OF_ASC_NODE": 220.8763, "ARG_OF_PERICENTER": 24.0529, "MEAN_ANOMALY": 336.3567, "EPHEMERIS_TYPE": 0, "CLASSIFICATION_TYPE": "U", "NORAD_CAT_ID": 35465, "ELEMENT_SET_NO": 999, "REV_AT_EPOCH": 87057, "BSTAR": 0.00049692277, "MEAN_MOTION_DOT": 1.723e-05, "MEAN_MOTION_DDOT": 0}, "tle": {"line1": "1 35465U 93036ALK 25333.95039621  .00001723  00000+0  49692-3 0  9990", "line2": "2 35465  73.9997 220.8763 0063428  24.0529 336.3567 14.44263019870576"}}, "geometry": {"type": "Point", "coordinates": [13.0572562239925, 37.92790164638998]}}, {"type": "Feature", "properties": {"norad_id": 35469, "name": "COSMOS 2251 DEB", "group": "cosmos-2251-debris", "lat": -57.82149082291001, "lon": -120.01538819441565, "alt_km": 699.1044387066686, "timestamp": "2025-12-07T22:37:43.478300+00:00", "meta": {"OBJECT_NAME": "COSMOS 2251 DEB", "OBJECT_ID": "1993-036ALP", "EPOCH": "2025-12-05T21:29:38.924160", "MEAN_MOTION": 14.49809382, "ECCENTRICITY": 0.00772528, "INCLINATION": 74.0178, "RA_OF_ASC_NODE": 36.7347, "ARG_OF_PERICENTER": 193.7739, "MEAN_ANOMALY": 166.1315, "EPHEMERIS_TYPE": 0, "CLASSIFICATION_TYPE": "U", "NORAD_CAT_ID": 35469, "ELEMENT_SET_NO": 999, "REV_AT_EPOCH": 88012, "BSTAR": 0.00021879134, "MEAN_MOTION_DOT": 8.47e-06, "MEAN_MOTION_DDOT": 0}, "tle": {"line1": "1 35469U 93036ALP 25339.89558940  .00000847  00000+0  21879-3 0  9996", "line2": "2 35469  74.0178  36.7347 0077252 193.7739 166.1315 14.49809382880128"}}, "geometry": {"type": "Point", "coordinates": [-120.01538819441565, -57.82149082291001]}}, {"type": "Feature", "properties": {"norad_id": 35475, "name": "COSMOS 2251 DEB", "group": "cosmos-2251-debris", "lat": 63.13993301505954, "lon": -39.525569265696234, "alt_km": 666.5173703234032, "timestamp": "2025-12-07T22:37:43.478310+00:00", "meta": {"OBJECT_NAME": "COSMOS 2251 DEB", "OBJECT_ID": "1993-036ALV", "EPOCH": "2025-12-06T23:14:47.666400", "MEAN_MOTION": 14.69549672, "ECCENTRICITY": 0.00209322, "INCLINATION": 74.0219, "RA_OF_ASC_NODE": 176.8168, "ARG_OF_PERICENTER": 250.1481, "MEAN_ANOMALY": 109.7434, "EPHEMERIS_TYPE": 0, "CLASSIFICATION_TYPE": "U", "NORAD_CAT_ID": 35475, "ELEMENT_SET_NO": 999, "REV_AT_EPOCH": 65532, "BSTAR": 0.0027021726, "MEAN_MOTION_DOT": 0.00016102, "MEAN_MOTION_DDOT": 0}, "tle": {"line1": "1 35475U 93036ALV 25340.96860725  .00016102  00000+0  27022-2 0  9996", "line2": "2 35475  74.0219 176.8168 0020932 250.1481 109.7434 14.69549672655325"}}, "geometry": {"type": "Point", "coordinates": [-39.525569265696234, 63.13993301505954]}}, {"type": "Feature", "properties": {"norad_id": 35476, "name": "COSMOS 2251 DEB", "group": "cosmos-2251-debris", "lat": -34.02652219534043, "lon": -98.48002397898546, "alt_km": 660.8785882056882, "timestamp": "2025-12-07T22:37:43.478320+00:00", "meta": {"OBJECT_NAME": "COSMOS 2251 DEB", "OBJECT_ID": "1993-036ALW", "EPOCH": "2025-12-07T00:45:56.433024", "MEAN_MOTION": 14.75483952, "ECCENTRICITY": 0.0017383, "INCLINATION": 73.9785, "RA_OF_ASC_NODE": 72.1202, "ARG_OF_PERICENTER": 56.9957, "MEAN_ANOMALY": 1.6076, "EPHEMERIS_TYPE": 0, "CLASSIFICATION_TYPE": "U", "NORAD_CAT_ID": 35476, "ELEMENT_SET_NO": 999, "REV_AT_EPOCH": 87803, "BSTAR": 0.0026587465, "MEAN_MOTION_DOT": 0.0001815, "MEAN_MOTION_DDOT": 0}, "tle": {"line1": "1 35476U 93036ALW 25341.03190316  .00018150  00000+0  26587-2 0  9998", "line2": "2 35476  73.9785  72.1202 0017383  56.9957   1.6076 14.75483952878037"}}, "geometry": {"type": "Point", "coordinates": [-98.48002397898546, -34.02652219534043]}}, {"type": "Feature", "properties": {"norad_id": 35580, "name": "COSMOS 2251 DEB", "group": "cosmos-2251-debris", "lat": 73.23836992257274, "lon": -66.64050986645255, "alt_km": 967.3232715475306, "timestamp": "2025-12-07T22:37:43.478331+00:00", "meta": {"OBJECT_NAME": "COSMOS 2251 DEB", "OBJECT_ID": "1993-036ALX", "EPOCH": "2025-12-06T21:51:49.269024", "MEAN_MOTION": 13.83821036, "ECCENTRICITY": 0.02818687, "INCLINATION": 73.9, "RA_OF_ASC_NODE": 188.633, "ARG_OF_PERICENTER": 195.0077, "MEAN_ANOMALY": 164.256, "EPHEMERIS_TYPE": 0, "CLASSIFICATION_TYPE": "U", "NORAD_CAT_ID": 35580, "ELEMENT_SET_NO": 999, "REV_AT_EPOCH": 62176, "BSTAR": 0.0026984958, "MEAN_MOTION_DOT": 4.042e-05, "MEAN_MOTION_DDOT": 0}, "tle": {"line1": "1 35580U 93036ALX 25340.91098691  .00004042  00000+0  26985-2 0  9990", "line2": "2 35580  73.9000 188.6330 0281868 195.0077 164.2560 13.83821036621764"}}, "geometry": {"type": "Point", "coordinates": [-66.64050986645255, 73.23836992257274]}}, {"type": "Feature", "properties": {"norad_id": 35583, "name": "COSMOS 2251 DEB", "group": "cosmos-2251-debris", "lat": -65.39044808330664, "lon": -179.2456119274117, "alt_km": 847.8621496208589, "timestamp": "2025-12-07T22:37:43.478341+00:00", "meta": {"OBJECT_NAME": "COSMOS 2251 DEB", "OBJECT_ID": "1993-036AMA", "EPOCH": "2025-12-06T09:46:22.855872", "MEAN_MOTION": 13.55320522, "ECCENTRICITY": 0.03857217, "INCLINATION": 73.9174, "RA_OF_ASC_NODE": 222.2787, "ARG_OF_PERICENTER": 247.7895, "MEAN_ANOMALY": 108.1877, "EPHEMERIS_TYPE": 0, "CLASSIFICATION_TYPE": "U", "NORAD_CAT_ID": 35583, "ELEMENT_SET_NO": 999, "REV_AT_EPOCH": 82326, "BSTAR": 0.00085653022, "MEAN_MOTION_DOT": 9.31e-06, "MEAN_MOTION_DDOT": 0}, "tle": {"line1": "1 35583U 93036AMA 25340.40720898  .00000931  00000+0  85653-3 0  9999", "line2": "2 35583  73.9174 222.2787 0385721 247.7895 108.1877 13.55320522823266"}}, "geometry": {"type": "Point", "coordinates": [-179.2456119274117, -65.39044808330664]}}, {"type": "Feature", "properties": {"norad_id": 35585, "name": "COSMOS 2251 DEB", "group": "cosmos-2251-debris", "lat": -69.05848668320604, "lon": -134.88631777628174, "alt_km": 764.9292964776796, "timestamp": "2025-12-07T22:37:43.478352+00:00", "meta": {"OBJECT_NAME": "COSMOS 2251 DEB", "OBJECT_ID": "1993-036AMC", "EPOCH": "2025-12-04T07:54:11.347200", "MEAN_MOTION": 13.75209322, "ECCENTRICITY": 0.0310609, "INCLINATION": 73.9717, "RA_OF_ASC_NODE": 2.4547, "ARG_OF_PERICENTER": 276.3473, "MEAN_ANOMALY": 97.5406, "EPHEMERIS_TYPE": 0, "CLASSIFICATION_TYPE": "U", "NORAD_CAT_ID": 35585, "ELEMENT_SET_NO": 999, "REV_AT_EPOCH": 63948, "BSTAR": 0.0020064, "MEAN_MOTION_DOT": 2.707e-05, "MEAN_MOTION_DDOT": 0}, "tle": {"line1": "1 35585U 93036AMC 25338.32929800  .00002707  00000+0  20064-2 0  9990", "line2": "2 35585  73.9717   2.4547 0310609 276.3473  97.5406 13.75209322639480"}}, "geometry": {"type": "Point", "coordinates": [-134.88631777628174, -69.05848668320604]}}, {"type": "Feature", "properties": {"norad_id": 35586, "name": "COSMOS 2251 DEB", "group": "cosmos-2251-debris", "lat": 55.39255201532005, "lon": 105.63195623242203, "alt_km": 923.8028352416877, "timestamp": "2025-12-07T22:37:43.478363+00:00", "meta": {"OBJECT_NAME": "COSMOS 2251 DEB", "OBJECT_ID": "1993-036AMD", "EPOCH": "2025-12-02T16:49:03.133344", "MEAN_MOTION": 13.52074918, "ECCENTRICITY": 0.04051153, "INCLINATION": 74.0205, "RA_OF_ASC_NODE": 318.5607, "ARG_OF_PERICENTER": 196.0051, "MEAN_ANOMALY": 342.734, "EPHEMERIS_TYPE": 0, "CLASSIFICATION_TYPE": "U", "NORAD_CAT_ID": 35586, "ELEMENT_SET_NO": 999, "REV_AT_EPOCH": 60246, "BSTAR": 0.00045411914, "MEAN_MOTION_DOT": 4.79e-06, "MEAN_MOTION_DDOT": 0}, "tle": {"line1": "1 35586U 93036AMD 25336.70073071  .00000479  00000+0  45412-3 0  9990", "line2": "2 35586  74.0205 318.5607 0405115 196.0051 342.7340 13.52074918602466"}}, "geometry": {"type": "Point", "coordinates": [105.63195623242203, 55.39255201532005]}}, {"type": "Feature", "properties": {"norad_id": 35587, "name": "COSMOS 2251 DEB", "group": "cosmos-2251-debris", "lat": 73.75288407541295, "lon": 167.94940856823064, "alt_km": 718.2196491891291, "timestamp": "2025-12-07T22:37:43.478374+00:00", "meta": {"OBJECT_NAME": "COSMOS 2251 DEB", "OBJECT_ID": "1993-036AME", "EPOCH": "2025-12-06T23:21:29.867040", "MEAN_MOTION": 14.71485933, "ECCENTRICITY": 0.01027904, "INCLINATION": 74.0056, "RA_OF_ASC_NODE": 69.6568, "ARG_OF_PERICENTER": 258.589, "MEAN_ANOMALY": 100.3722, "EPHEMERIS_TYPE": 0, "CLASSIFICATION_TYPE": "U", "NORAD_CAT_ID": 35587, "ELEMENT_SET_NO": 999, "REV_AT_EPOCH": 66261, "BSTAR": 0.00050810605, "MEAN_MOTION_DOT": 3.388e-05, "MEAN_MOTION_DDOT": 0}, "tle": {"line1": "1 35587U 93036AME 25340.97326235  .00003388  00000+0  50811-3 0  9999", "line2": "2 35587  74.0056  69.6568 0102790 258.5890 100.3722 14.71485933662619"}}, "geometry": {"type": "Point", "coordinates": [167.94940856823064, 73.75288407541295]}}]}